     2.10           N: GPS NAV DATA                         RINEX VERSION / TYPE
teqc  2008Oct2      gpsops              20090128 00:05:53UTCPGM / RUN BY / DATE
Linux 2.4.20-8|Pentium IV|gcc -static|Linux|486/DX+         COMMENT
soc2rnx ver 1.20    gpsops              28-Jan-2009 00:05:43COMMENT
Forced Modulo Decimation to 30 seconds                      COMMENT
MADR                                    MARKER NAME         COMMENT
13407S012                               MARKER NUMBER       COMMENT
4849202.3940 -360328.9929 4114913.1862                      COMMENT
                                                            COMMENT
This data is provided as a public service by NASA/JPL.      COMMENT
No warranty is expressed or implied regarding suitability   COMMENT
for use.  For further information, contact:                 COMMENT
Dave Stowers, NASA/JPL m/s 238-600                          COMMENT
4800 Oak Grove Drive, Pasadena CA 91109 USA                 COMMENT
                                                            END OF HEADER
 5 09  1 27  6  0  0.0-6.010541692376D-04-4.911271389574D-11 0.000000000000D+00
    1.520000000000D+02-1.329062500000D+02 4.735554397706D-09 1.596222603730D+00
   -7.055699825287D-06 9.379112510942D-03 6.597489118576D-06 5.153638837814D+03
    1.944000000000D+05-9.313225746155D-08-4.539871393238D-01-2.030283212662D-07
    9.452545734643D-01 2.452812500000D+02 1.296900244461D+00-8.309989001540D-09
   -3.421571093598D-10 1.000000000000D+00 1.516000000000D+03 0.000000000000D+00
    4.000000000000D+00 0.000000000000D+00-4.190951585770D-09 1.520000000000D+02
    1.872000000000D+05
 2 09  1 27  6  0  0.0 1.597800292075D-04-1.591615728103D-12 0.000000000000D+00
    3.800000000000D+01 2.500000000000D+00 5.399510625576D-09-8.390038018189D-01
    1.229345798492D-07 8.934808545746D-03 4.477798938751D-06 5.153595548630D+03
    1.944000000000D+05-8.381903171539D-08 1.723209396508D+00-2.235174179077D-07
    9.414154112163D-01 2.850000000000D+02 2.706445624289D+00-8.493210919183D-09
    1.760787629587D-10 1.000000000000D+00 1.516000000000D+03 0.000000000000D+00
    2.000000000000D+00 0.000000000000D+00-1.722946763039D-08 3.800000000000D+01
    1.872000000000D+05
 9 09  1 27  6  0  0.0 3.717932850122D-05 2.046363078989D-12 0.000000000000D+00
    5.800000000000D+01 2.496875000000D+01 4.507330605555D-09 2.694735491715D+00
    1.136213541031D-06 2.016332361382D-02 4.731118679047D-07 5.153650241852D+03
    1.944000000000D+05 1.806765794754D-07-1.441448289147D+00-1.899898052216D-07
    9.744273411757D-01 3.728125000000D+02 1.459106386232D+00-8.077122158844D-09
   -1.357199389945D-11 1.000000000000D+00 1.516000000000D+03 0.000000000000D+00
    2.000000000000D+00 0.000000000000D+00-5.587935447693D-09 5.800000000000D+01
    1.872000000000D+05
14 09  1 27  5 59 44.0-1.626801677048D-04 5.229594535194D-12 0.000000000000D+00
    1.400000000000D+01 1.093125000000D+02 3.846588797292D-09-5.683737104293D-01
    5.748122930527D-06 4.418356460519D-03 9.166076779366D-06 5.153570636749D+03
    1.943840000000D+05-5.029141902924D-08-2.418873540066D+00 5.215406417847D-08
    9.889914455206D-01 2.192500000000D+02-2.100380888700D+00-7.757108829005D-09
    2.307238962907D-10 1.000000000000D+00 1.516000000000D+03 0.000000000000D+00
    2.000000000000D+00 0.000000000000D+00-9.313225746155D-09 1.400000000000D+01
    1.872000000000D+05
12 09  1 27  6  0  0.0-3.218716010451D-04 3.524291969370D-12 0.000000000000D+00
    1.300000000000D+01-1.267187500000D+02 4.198032007741D-09-2.455402082244D+00
   -6.547197699547D-06 3.156166174449D-03 7.973983883858D-06 5.153737789154D+03
    1.944000000000D+05 7.450580596924D-09-3.550203699206D-01 6.705522537231D-08
    9.662767399105D-01 2.261875000000D+02-8.234799573827D-01-7.932830434229D-09
   -3.235849071817D-10 1.000000000000D+00 1.516000000000D+03 0.000000000000D+00
    2.000000000000D+00 0.000000000000D+00-1.164153218269D-08 1.300000000000D+01
    1.872000000000D+05
24 09  1 27  5 59 44.0 1.607583835721D-04 2.955857780762D-12 0.000000000000D+00
    2.500000000000D+01 4.000000000000D+00 5.127356432119D-09 1.317859621000D+00
    2.160668373108D-07 6.991080706939D-03 4.539266228676D-06 5.153657049179D+03
    1.943840000000D+05 1.732259988785D-07 1.785807767913D+00 6.705522537231D-08
    9.508339440618D-01 2.868125000000D+02-6.400379709620D-01-8.284987960147D-09
    6.750281176306D-11 1.000000000000D+00 1.516000000000D+03 0.000000000000D+00
    2.000000000000D+00 0.000000000000D+00-1.396983861923D-09 2.500000000000D+01
    1.872000000000D+05
29 09  1 27  6  0  0.0-1.504924148321D-05 3.069544618484D-12 0.000000000000D+00
    9.500000000000D+01 3.031250000000D+00 4.336252050875D-09 2.757610626740D+00
    4.097819328308D-08 3.243830986321D-03 1.057796180248D-05 5.153753255844D+03
    1.944000000000D+05 4.842877388000D-08 7.112999582812D-01 1.676380634308D-08
    9.599840694755D-01 1.741875000000D+02-1.344762027628D+00-7.743536835105D-09
    4.957349350642D-10 1.000000000000D+00 1.516000000000D+03 0.000000000000D+00
    2.000000000000D+00 0.000000000000D+00-8.847564458847D-09 9.500000000000D+01
    1.872000000000D+05
30 09  1 27  6  0  0.0 1.224013976753D-04 2.501110429876D-12 0.000000000000D+00
    1.600000000000D+01-1.285312500000D+02 4.670551690082D-09 1.060358629816D+00
   -6.789341568947D-06 1.116127939895D-02 7.407739758492D-06 5.153655746460D+03
    1.944000000000D+05-1.583248376846D-07-4.008136293479D-01-1.005828380585D-07
    9.512197930939D-01 2.345625000000D+02 1.415128075639D+00-8.351419298707D-09
   -3.582292073987D-10 1.000000000000D+00 1.516000000000D+03 0.000000000000D+00
    2.000000000000D+00 0.000000000000D+00-7.916241884232D-09 1.600000000000D+01
    1.872000000000D+05
31 09  1 27  6  0  0.0-4.925951361656D-05-1.477928890381D-12 0.000000000000D+00
    5.600000000000D+01 1.190625000000D+01 4.644836333220D-09-2.728519917029D+00
    7.692724466324D-07 7.165572838858D-03 7.525086402893D-07 5.153629638672D+03
    1.944000000000D+05 3.725290298462D-08-1.409229677718D+00 1.247972249985D-07
    9.708849172310D-01 3.710000000000D+02-1.202000799861D+00-8.277487647728D-09
    5.393081786361D-11 1.000000000000D+00 1.516000000000D+03 0.000000000000D+00
    2.000000000000D+00 0.000000000000D+00-1.303851604462D-08 5.600000000000D+01
    1.872000000000D+05
21 09  1 27  6  0  0.0 3.196205943823D-05-1.818989403546D-12 0.000000000000D+00
    9.100000000000D+01 7.156250000000D+00 5.482014062176D-09 2.698435120837D+00
    2.905726432800D-07 1.458010217175D-02 4.434958100319D-06 5.153639099121D+03
    1.944000000000D+05-1.620501279831D-07 1.755698690206D+00-1.937150955200D-07
    9.341868755131D-01 2.813437500000D+02-2.651593456779D+00-8.343204670821D-09
    1.285767843106D-10 1.000000000000D+00 1.516000000000D+03 0.000000000000D+00
    2.800000000000D+00 0.000000000000D+00-1.164153218269D-08 9.100000000000D+01
    1.887000000000D+05
16 09  1 27  6  0  0.0 7.909815758467D-05-2.728484105319D-12 0.000000000000D+00
    1.050000000000D+02-1.184375000000D+02 4.185174329310D-09 1.302182075076D+00
   -6.034970283508D-06 4.993036855012D-03 7.893890142441D-06 5.153760347366D+03
    1.944000000000D+05 5.587935447693D-08-3.382672383482D-01 4.656612873077D-08
    9.678183264095D-01 2.271875000000D+02-3.882637598526D-01-7.932116118761D-09
   -3.382283742837D-10 1.000000000000D+00 1.516000000000D+03 0.000000000000D+00
    2.000000000000D+00 0.000000000000D+00-9.778887033463D-09 1.050000000000D+02
    1.909500000000D+05
21 09  1 27  5 59 44.0 3.196159377694D-05-1.818989403546D-12 0.000000000000D+00
    1.000000000000D+00 7.156250000000D+00 5.482014062176D-09 2.696101454899D+00
    2.905726432800D-07 1.458010007627D-02 4.434958100319D-06 5.153639093399D+03
    1.943840000000D+05-1.620501279831D-07 1.755698840887D+00-1.937150955200D-07
    9.341868667356D-01 2.813437500000D+02-2.651593565035D+00-8.343204670821D-09
    1.282196265764D-10 1.000000000000D+00 1.516000000000D+03 0.000000000000D+00
    2.000000000000D+00 0.000000000000D+00-1.164153218269D-08 1.000000000000D+00
    1.910400000000D+05
 6 09  1 27  6  0  0.0 7.883040234447D-05-1.307398633799D-11 0.000000000000D+00
    4.000000000000D+01-2.093750000000D+00 4.909133056525D-09 1.336087823112D+00
   -2.831220626831D-07 5.672218860127D-03 1.052021980286D-05 5.153717689514D+03
    1.944000000000D+05-1.117587089539D-08 6.431826347956D-01-1.657754182816D-07
    9.338531487892D-01 1.632812500000D+02-1.471929237704D+00-8.171768958406D-09
    4.246605459591D-10 1.000000000000D+00 1.516000000000D+03 0.000000000000D+00
    2.000000000000D+00 0.000000000000D+00-4.656612873077D-09 4.000000000000D+01
    1.941000000000D+05
 5 09  1 27  8  0  0.0-6.014076061547D-04-4.911271389574D-11 0.000000000000D+00
    1.530000000000D+02-1.389062500000D+02 4.763412700973D-09 2.646578311741D+00
   -7.152557373047D-06 9.379948489368D-03 6.830319762230D-06 5.153635776520D+03
    2.016000000000D+05 6.146728992462D-08-4.540459164463D-01-8.009374141693D-08
    9.452528106480D-01 2.348750000000D+02 1.296749170374D+00-8.122481191087D-09
   -3.775157250453D-10 1.000000000000D+00 1.516000000000D+03 0.000000000000D+00
    4.000000000000D+00 0.000000000000D+00-4.190951585770D-09 1.530000000000D+02
    1.944000000000D+05
21 09  1 27  7 59 44.0 3.194855526090D-05-1.818989403546D-12 0.000000000000D+00
    1.800000000000D+01 3.000000000000D+00 5.480228273505D-09-2.536881613153D+00
   -4.284083843231D-08 1.458068029024D-02 4.503875970840D-06 5.153638004303D+03
    2.015840000000D+05-2.235174179077D-08 1.755638641808D+00-2.291053533554D-07
    9.341878395761D-01 2.803437500000D+02-2.651586487438D+00-8.359633926594D-09
    1.728643433509D-10 1.000000000000D+00 1.516000000000D+03 0.000000000000D+00
    2.000000000000D+00 0.000000000000D+00-1.164153218269D-08 1.800000000000D+01
    1.944000000000D+05
